ONEWEB-0208             
1 48243U 21031AK  25081.85761946 -.00000199  00000+0 -57113-3 0  9990
2 48243  87.9079  19.4461 0001782  73.8860 286.2466 13.14502977189010
ONEWEB-0200             
1 48244U 21031AL  25081.89725170 -.00000062  00000+0 -20166-3 0  9991
2 48244  87.9081  19.4316 0001767  72.2461 287.8861 13.14502504188949
ONEWEB-0217             
1 48245U 21031AM  25081.83698933 -.00000455  00000+0 -12626-2 0  9999
2 48245  87.9081  19.4282 0001772  68.4536 291.6783 13.14502137188889
ONEWEB-0211             
1 48767U 21045A   25080.69485559  .00015358  00000+0  40307-1 0  9996
2 48767  87.9130 349.3131 0002598  66.4036 293.7367 13.16198064184925
ONEWEB-0223             
1 48768U 21045B   25081.79300566 -.00000241  00000+0 -67472-3 0  9994
2 48768  87.9130 349.1167 0002197  68.6573 291.4791 13.15548362185058
ONEWEB-0230             
1 48769U 21045C   25081.76449544 -.00000112  00000+0 -33261-3 0  9998
2 48769  87.9117 349.1800 0001941  81.7868 278.3483 13.15547820185316
ONEWEB-0237             
1 48770U 21045D   25081.82946390  .00000090  00000+0  20402-3 0  9994
2 48770  87.9141 349.1244 0002103  72.1406 287.9953 13.15546520185044
ONEWEB-0235             
1 48771U 21045E   25081.80410572 -.00000119  00000+0 -35004-3 0  9999
2 48771  87.9127 349.1174 0002332  68.5914 291.5465 13.15547938185030
ONEWEB-0242             
1 48772U 21045F   25081.79776029 -.00000239  00000+0 -66901-3 0  9993
2 48772  87.9127 349.1046 0001990  78.2821 281.8533 13.15547959185078
ONEWEB-0241             
1 48773U 21045G   25081.78509123 -.00000287  00000+0 -79520-3 0  9996
2 48773  87.9123 349.1780 0001842  65.6709 294.4613 13.15547588184987
ONEWEB-0243             
1 48774U 21045H   25081.96889714  .00000287  00000+0  72892-3 0  9997
2 48774  87.9141 349.1055 0002275  71.0973 289.0404 13.15547271185032
ONEWEB-0222             
1 48775U 21045J   25081.72409043  .00000136  00000+0  32601-3 0  9992
2 48775  87.9125 349.1273 0001848  72.7506 287.3826 13.15546588185042
ONEWEB-0244             
1 48776U 21045K   25081.97841097 -.00000047  00000+0 -15794-3 0  9996
2 48776  87.9129 349.0554 0001993  78.6611 281.4743 13.15547355185643
ONEWEB-0247             
1 48777U 21045L   25081.97524312  .00000058  00000+0  11899-3 0  9997
2 48777  87.9135 349.1185 0002726  67.2666 292.8753 13.15547802185083
ONEWEB-0245             
1 48778U 21045M   25081.97048050  .00000142  00000+0  34237-3 0  9993
2 48778  87.9127 349.0914 0001766  70.4393 289.6928 13.15547079185051
ONEWEB-0229             
1 48779U 21045N   25081.96572673  .00000216  00000+0  53850-3 0  9990
2 48779  87.9130 349.0896 0001986  77.0959 283.0393 13.15547922185084
ONEWEB-0228             
1 48780U 21045P   25081.77098000 -.00000072  00000+0 -22515-3 0  9994
2 48780  87.9127 349.1041 0001946  73.6044 286.5301 13.15547447184974
ONEWEB-0232             
1 48781U 21045Q   25081.97366462  .00000187  00000+0  46145-3 0  9997
2 48781  87.9123 349.0655 0001838  75.9439 284.1895 13.15548468185320
ONEWEB-0231             
1 48782U 21045R   25081.79935670  .00000208  00000+0  51805-3 0  9994
2 48782  87.9115 349.1600 0002061  72.7165 287.4190 13.15547362184991
ONEWEB-0234             
1 48783U 21045S   25081.97126929  .00000114  00000+0  26787-3 0  9991
2 48783  87.9130 349.0759 0000572  65.3307 294.7883 13.15546727185157
ONEWEB-0238             
1 48784U 21045T   25081.77320415 -.00000437  00000+0 -11947-2 0  9997
2 48784  87.9128 349.1310 0001617  76.6384 283.4926 13.15547684185022
ONEWEB-0240             
1 48785U 21045U   25081.78272331 -.00000151  00000+0 -43626-3 0  9995
2 48785  87.9127 349.0950 0001828  66.4376 293.6946 13.15547317185054
ONEWEB-0246             
1 48786U 21045V   25081.77716405 -.00000431  00000+0 -11779-2 0  9994
2 48786  87.9127 349.1054 0001947  78.4154 281.7195 13.15547790184924
ONEWEB-0210             
1 48787U 21045W   25081.75181516 -.00000144  00000+0 -41577-3 0  9993
2 48787  87.9132 349.1112 0002545  75.6117 284.5296 13.15546915184964
ONEWEB-0214             
1 48788U 21045X   25081.76132912 -.00000170  00000+0 -48498-3 0  9999
2 48788  87.9132 349.0988 0002332  80.8311 279.3083 13.15547636184937
ONEWEB-0221             
1 48789U 21045Y   25081.76767492 -.00000153  00000+0 -43927-3 0  9990
2 48789  87.9134 349.1230 0001879  73.0695 287.0641 13.15548746185025
ONEWEB-0213             
1 48790U 21045Z   25081.75656720 -.00000403  00000+0 -11058-2 0  9999
2 48790  87.9131 349.1339 0002076  73.2649 286.8709 13.15547374185089
ONEWEB-0212             
1 48791U 21045AA  25081.96176742 -.00000135  00000+0 -39192-3 0  9996
2 48791  87.9134 349.0819 0001721  72.8688 287.2630 13.15548172185107
ONEWEB-0227             
1 48792U 21045AB  25081.80886011  .00000178  00000+0  43944-3 0  9992
2 48792  87.9131 349.1246 0001864  73.2873 286.8462 13.15547645185033
ONEWEB-0226             
1 48793U 21045AC  25081.80253405 -.00000058  00000+0 -18908-3 0  9999
2 48793  87.9133 349.1305 0002155  74.0564 286.0804 13.15548556185003
ONEWEB-0224             
1 48794U 21045AD  25081.76606826 -.00000316  00000+0 -87255-3 0  9992
2 48794  87.9136 349.1700 0001658  44.3632 315.7631 13.15547901184920
ONEWEB-0233             
1 48795U 21045AE  25081.77069712 -.00000136  00000+0 -39547-3 0  9992
2 48795  87.9131 349.1792 0002001  68.1448 291.9894 13.15547353184948
ONEWEB-0190             
1 48796U 21045AF  25081.75816665 -.00000109  00000+0 -32222-3 0  9991
2 48796  87.9137 349.1448 0002539  65.0896 295.0498 13.15549266185011
ONEWEB-0236             
1 48797U 21045AG  25081.77559645 -.00000148  00000+0 -42700-3 0  9991
2 48797  87.9139 349.1457 0001816  73.4645 286.6685 13.15547927184909
ONEWEB-0248             
1 48798U 21045AH  25081.78826200 -.00000179  00000+0 -51054-3 0  9993
2 48798  87.9125 349.1095 0002013  57.4604 302.6720 13.15548449185067
ONEWEB-0225             
1 48799U 21045AJ  25081.96256663  .00000130  00000+0  31120-3 0  9991
2 48799  87.9136 349.1002 0002013  69.5632 290.5714 13.15547401185091
ONEWEB-0215             
1 48800U 21045AK  25081.70427293 -.00000439  00000+0 -12002-2 0  9996
2 48800  87.9127 349.1098 0002218  59.6173 300.5176 13.15548033184934
ONEWEB-0216             
1 48801U 21045AL  25081.78985066  .00000041  00000+0  75707-4 0  9992
2 48801  87.9128 349.1370 0001997  82.7463 277.3895 13.15546966184955
ONEWEB-0239             
1 48802U 21045AM  25081.79460153  .00000095  00000+0  21919-3 0  9993
2 48802  87.9137 349.1365 0002110  54.4921 305.6406 13.15547122184995
ONEWEB-0249             
1 48967U 21060A   25081.93414446  .00000060  00000+0  12435-3 0  9997
2 48967  87.9075 318.7336 0001618  79.9675 280.1638 13.16592630180230
ONEWEB-0250             
1 48968U 21060B   25081.92638538  .00000041  00000+0  63222-4 0  9997
2 48968  87.9076 317.9673 0001824  44.7211 315.4071 13.25705893180423
ONEWEB-0252             
1 48970U 21060D   25081.88980829  .00000059  00000+0  12102-3 0  9997
2 48970  87.9080 318.7355 0001972  89.5318 270.6039 13.16592498180270
ONEWEB-0253             
1 48971U 21060E   25081.95472533  .00000137  00000+0  32456-3 0  9995
2 48971  87.9077 318.7290 0001876  75.4723 284.6616 13.16592469180210
ONEWEB-0254             
1 48972U 21060F   25081.88823727 -.00000074  00000+0 -22663-3 0  9994
2 48972  87.9079 318.7249 0001806  65.5208 294.6111 13.16594174180203
ONEWEB-0255             
1 48973U 21060G   25081.92622183  .00000040  00000+0  71097-4 0  9990
2 48973  87.9079 318.7509 0001828  71.8889 288.2440 13.16591590180283
ONEWEB-0256             
1 48974U 21060H   25081.95235866  .00000005  00000+0 -20150-4 0  9998
2 48974  87.9080 318.7574 0001768  86.3363 273.7970 13.16593324180250
ONEWEB-0257             
1 48975U 21060J   25081.68082310 -.00000132  00000+0 -37888-3 0  9990
2 48975  87.9079 318.7741 0001904  77.4227 282.7117 13.16592525180173
ONEWEB-0258             
1 48976U 21060K   25081.91038768  .00000025  00000+0  33104-4 0  9992
2 48976  87.9079 318.7563 0001665  79.7328 280.3990 13.16591978180216
ONEWEB-0259             
1 48977U 21060L   25081.90407181 -.00000030  00000+0 -11312-3 0  9995
2 48977  87.9080 318.7418 0001678  76.3686 283.7632 13.16593668180243
ONEWEB-0260             
1 48978U 21060M   25081.89535782  .00000063  00000+0  13171-3 0  9992
2 48978  87.9080 318.7736 0002152  90.6456 269.4921 13.16593502180226
ONEWEB-0261             
1 48979U 21060N   25081.71328283 -.00000001  00000+0 -36588-4 0  9992
2 48979  87.9081 318.8107 0002136  74.7079 285.4288 13.16593171180256
ONEWEB-0262             
1 48980U 21060P   25081.92148075 -.00000034  00000+0 -12301-3 0  9998
2 48980  87.9080 318.7257 0001582  71.2906 288.8397 13.16591992180243
ONEWEB-0263             
1 48981U 21060Q   25081.72515200  .00000088  00000+0  19529-3 0  9991
2 48981  87.9081 318.7895 0001950  70.7845 289.3497 13.16592951180184
ONEWEB-0264             
1 48982U 21060R   25081.91434671 -.00000036  00000+0 -12765-3 0  9995
2 48982  87.9081 318.7604 0001762  80.0225 280.1105 13.16591967181508
ONEWEB-0266             
1 48984U 21060T   25081.93573316 -.00000059  00000+0 -18665-3 0  9999
2 48984  87.9077 318.7271 0001513  78.6161 281.5140 13.16593008180209
ONEWEB-0267             
1 48985U 21060U   25081.94681072  .00000050  00000+0  96410-4 0  9994
2 48985  87.9078 318.7269 0001947  76.1857 283.9490 13.16592985180212
ONEWEB-0268             
1 48986U 21060V   25081.91514275 -.00000155  00000+0 -44005-3 0  9992
2 48986  87.9077 318.7396 0001815  84.3046 275.8292 13.16592458181764
ONEWEB-0269             
1 48987U 21060W   25081.66814991 -.00000267  00000+0 -73312-3 0  9990
2 48987  87.9085 318.8229 0001680  83.3195 276.8127 13.16593190180215
ONEWEB-0270             
1 48988U 21060X   25081.91357626 -.00000306  00000+0 -83412-3 0  9992
2 48988  87.9077 318.7446 0001921  69.5729 290.5608 13.16594880181590
